[{"OBJECT_NAME":"QIANFAN-36","OBJECT_ID":"2024-185T","EPOCH":"2026-03-09T23:41:54.800448","MEAN_MOTION":13.5561466,"ECCENTRICITY":0.00073465,"INCLINATION":88.972,"RA_OF_ASC_NODE":71.9374,"ARG_OF_PERICENTER":135.4535,"MEAN_ANOMALY":224.7211,"EPHEMERIS_TYPE":0,"CLASSIFICATION_TYPE":"U","NORAD_CAT_ID":61569,"ELEMENT_SET_NO":999,"REV_AT_EPOCH":7974,"BSTAR":0.00015714599,"MEAN_MOTION_DOT":1.21e-6,"MEAN_MOTION_DDOT":0},{"OBJECT_NAME":"THORAD AGENA D DEB","OBJECT_ID":"1970-025PV","EPOCH":"2026-03-08T19:44:08.425536","MEAN_MOTION":13.59095542,"ECCENTRICITY":0.00270744,"INCLINATION":99.8878,"RA_OF_ASC_NODE":17.8051,"ARG_OF_PERICENTER":119.1983,"MEAN_ANOMALY":272.4423,"EPHEMERIS_TYPE":0,"CLASSIFICATION_TYPE":"U","NORAD_CAT_ID":19290,"ELEMENT_SET_NO":999,"REV_AT_EPOCH":2487,"BSTAR":0.00064813113,"MEAN_MOTION_DOT":4.32e-6,"MEAN_MOTION_DDOT":0}]
